0 NAXING 1
1 28221U 04012B   13281.45811440  .00001313  00000-0  14082-3 0  6469
2 28221 097.5311 249.1943 0011218 014.1418 100.1031 14.90177859514521
0 NAXING 1
1 28221U 04012B   13282.46535303  .00001332  00000-0  14283-3 0  6477
2 28221 097.5312 250.1544 0011118 010.7806 103.5785 14.90187337514674
0 NAXING 1
1 28221U 04012B   13283.79447693  .00001031  00000-0  11176-3 0  6483
2 28221 097.5312 251.4213 0011001 006.4162 033.8183 14.90192836514878
0 NAXING 1
1 28221U 04012B   13285.81269547  .00001032  00000-0  11183-3 0  6500
2 28221 097.5316 253.3449 0010800 359.4618 061.1791 14.90196594515175
0 NAXING 1
1 28221U 04012B   13286.81980245  .00001381  00000-0  14784-3 0  6514
2 28221 097.5319 254.3048 0010709 355.9228 064.2091 14.90197163515327
0 NAXING 1
1 28221U 04012B   13288.16330013  .00002202  00000-0  23239-3 0  6525
2 28221 097.5323 255.5854 0010567 350.9887 072.1608 14.90202585515527
0 NAXING 1
1 28221U 04012B   13289.38862780  .00001790  00000-0  18991-3 0  6532
2 28221 097.5326 256.7533 0010448 346.6590 165.9680 14.90207047515707
0 NAXING 1
1 28221U 04012B   13290.77820135  .00001948  00000-0  20617-3 0  6549
2 28221 097.5329 258.0778 0010317 341.7719 060.9426 14.90212675515907
0 NAXING 1
1 28221U 04012B   13291.92291573  .00001762  00000-0  18703-3 0  6553
2 28221 097.5332 259.1690 0010211 337.6839 082.3418 14.90217482516075
0 NAXING 1
1 28221U 04012B   13292.99462818  .00001755  00000-0  18629-3 0  6563
2 28221 097.5334 260.1907 0010134 333.7747 072.1853 14.90222420516235
0 NAXING 1
1 28221U 04012B   13294.41757285  .00001546  00000-0  16475-3 0  6573
2 28221 097.5336 261.5475 0010038 328.4447 146.5935 14.90229571516458
0 NAXING 1
1 28221U 04012B   13295.42483405  .00001723  00000-0  18297-3 0  6587
2 28221 097.5336 262.5080 0009972 324.6479 150.8209 14.90232229516602
